[{"OBJECT_NAME":"STARLINK-3253","OBJECT_ID":"2022-005AJ","EPOCH":"2026-03-09T21:47:19.632768","MEAN_MOTION":15.08832242,"ECCENTRICITY":0.00014395,"INCLINATION":53.2174,"RA_OF_ASC_NODE":297.9407,"ARG_OF_PERICENTER":90.4272,"MEAN_ANOMALY":269.6885,"EPHEMERIS_TYPE":0,"CLASSIFICATION_TYPE":"U","NORAD_CAT_ID":51136,"ELEMENT_SET_NO":999,"REV_AT_EPOCH":22876,"BSTAR":6.534797e-6,"MEAN_MOTION_DOT":-1.84e-6,"MEAN_MOTION_DDOT":0},{"OBJECT_NAME":"LEMUR-2-KREMPEL-BRO2","OBJECT_ID":"2025-061C","EPOCH":"2026-03-09T20:43:52.091904","MEAN_MOTION":15.13192951,"ECCENTRICITY":0.00179248,"INCLINATION":97.5616,"RA_OF_ASC_NODE":45.5365,"ARG_OF_PERICENTER":236.8576,"MEAN_ANOMALY":123.0936,"EPHEMERIS_TYPE":0,"CLASSIFICATION_TYPE":"U","NORAD_CAT_ID":63353,"ELEMENT_SET_NO":999,"REV_AT_EPOCH":5258,"BSTAR":0.00044346981,"MEAN_MOTION_DOT":7.837e-5,"MEAN_MOTION_DDOT":0}]
