STARLINK-3253           
1 51136U 22005AJ  26068.90786611 -.00000184  00000+0  65348-5 0  9999
2 51136  53.2174 297.9407 0001440  90.4272 269.6885 15.08832242228765
LEMUR-2-KREMPEL-BRO2    
1 63353U 25061C   26068.86379736  .00007837  00000+0  44347-3 0  9994
2 63353  97.5616  45.5365 0017924 236.8576 123.0936 15.13192951 52585
